[{"OBJECT_NAME":"KUIPER-00101","OBJECT_ID":"2025-228A","EPOCH":"2026-03-09T05:20:33.862560","MEAN_MOTION":14.79939717,"ECCENTRICITY":7.84e-5,"INCLINATION":51.8989,"RA_OF_ASC_NODE":2.6437,"ARG_OF_PERICENTER":94.525,"MEAN_ANOMALY":265.5802,"EPHEMERIS_TYPE":0,"CLASSIFICATION_TYPE":"U","NORAD_CAT_ID":65947,"ELEMENT_SET_NO":999,"REV_AT_EPOCH":2316,"BSTAR":0.00043135535,"MEAN_MOTION_DOT":3.069e-5,"MEAN_MOTION_DDOT":0},{"OBJECT_NAME":"CZ-6A DEB","OBJECT_ID":"2022-151ADC","EPOCH":"2026-03-09T01:20:22.662240","MEAN_MOTION":14.5468906,"ECCENTRICITY":0.01329228,"INCLINATION":98.5294,"RA_OF_ASC_NODE":103.0355,"ARG_OF_PERICENTER":266.5397,"MEAN_ANOMALY":92.0588,"EPHEMERIS_TYPE":0,"CLASSIFICATION_TYPE":"U","NORAD_CAT_ID":56284,"ELEMENT_SET_NO":999,"REV_AT_EPOCH":15533,"BSTAR":0.0015446655,"MEAN_MOTION_DOT":7.388e-5,"MEAN_MOTION_DDOT":0}]
